{
 "generated_at": "2026-07-24T07:31:19Z",
 "sources": [
  {
   "name": "CelesTrak",
   "url": "https://celestrak.org/NORAD/elements/",
   "license": "frei verfügbar; Attribution. Ursprünglich USSPACECOM/Space-Track."
  },
  {
   "name": "GCAT (J. McDowell, planet4589.org)",
   "url": "https://planet4589.org/space/gcat/",
   "license": "CC-BY 4.0"
  }
 ],
 "satellites": [
  {
   "norad": 58990,
   "name": "INSAT-3DS",
   "intl": "2024-033A",
   "group": "weather",
   "gcat": {
    "class": "C",
    "category": "MET",
    "owner": "ISRO",
    "state": "IN"
   },
   "omm": {
    "OBJECT_NAME": "INSAT-3DS",
    "OBJECT_ID": "2024-033A",
    "EPOCH": "2026-07-23T20:13:08.405760",
    "MEAN_MOTION": 1.00273491,
    "ECCENTRICITY": 0.000128,
    "INCLINATION": 0.0702,
    "RA_OF_ASC_NODE": 261.7061,
    "ARG_OF_PERICENTER": 217.0954,
    "MEAN_ANOMALY": 208.1041,
    "EPHEMERIS_TYPE": 0,
    "CLASSIFICATION_TYPE": "U",
    "NORAD_CAT_ID": 58990,
    "ELEMENT_SET_NO": 999,
    "REV_AT_EPOCH": 4743,
    "BSTAR": 0,
    "MEAN_MOTION_DOT": -0.00000151,
    "MEAN_MOTION_DDOT": 0
   }
  },
  {
   "norad": 61735,
   "name": "IONOSFERA-M 1",
   "intl": "2024-199A",
   "group": "resource",
   "gcat": {
    "class": "C",
    "category": "SCI",
    "owner": "VNIIEMI",
    "state": "RU"
   },
   "omm": {
    "OBJECT_NAME": "IONOSFERA-M 1",
    "OBJECT_ID": "2024-199A",
    "EPOCH": "2026-07-23T20:00:15.907680",
    "MEAN_MOTION": 14.22760354,
    "ECCENTRICITY": 0.0002007,
    "INCLINATION": 98.7124,
    "RA_OF_ASC_NODE": 77.6104,
    "ARG_OF_PERICENTER": 60.9732,
    "MEAN_ANOMALY": 299.1647,
    "EPHEMERIS_TYPE": 0,
    "CLASSIFICATION_TYPE": "U",
    "NORAD_CAT_ID": 61735,
    "ELEMENT_SET_NO": 999,
    "REV_AT_EPOCH": 13291,
    "BSTAR": 0.000031779,
    "MEAN_MOTION_DOT": 2.7e-7,
    "MEAN_MOTION_DDOT": 0
   }
  },
  {
   "norad": 61736,
   "name": "IONOSFERA-M 2",
   "intl": "2024-199B",
   "group": "resource",
   "gcat": {
    "class": "C",
    "category": "SCI",
    "owner": "VNIIEMI",
    "state": "RU"
   },
   "omm": {
    "OBJECT_NAME": "IONOSFERA-M 2",
    "OBJECT_ID": "2024-199B",
    "EPOCH": "2026-07-23T20:49:31.625760",
    "MEAN_MOTION": 14.22763646,
    "ECCENTRICITY": 0.0000859,
    "INCLINATION": 98.7122,
    "RA_OF_ASC_NODE": 77.5546,
    "ARG_OF_PERICENTER": 131.1608,
    "MEAN_ANOMALY": 228.9644,
    "EPHEMERIS_TYPE": 0,
    "CLASSIFICATION_TYPE": "U",
    "NORAD_CAT_ID": 61736,
    "ELEMENT_SET_NO": 999,
    "REV_AT_EPOCH": 13604,
    "BSTAR": 0.000033389,
    "MEAN_MOTION_DOT": 3.1e-7,
    "MEAN_MOTION_DDOT": 0
   }
  },
  {
   "norad": 64876,
   "name": "IONOSFERA-M 3",
   "intl": "2025-155A",
   "group": "resource",
   "gcat": {
    "class": "C",
    "category": "SCI",
    "owner": "VNIIEMI",
    "state": "RU"
   },
   "omm": {
    "OBJECT_NAME": "IONOSFERA-M 3",
    "OBJECT_ID": "2025-155A",
    "EPOCH": "2026-07-23T20:20:57.835968",
    "MEAN_MOTION": 14.21491966,
    "ECCENTRICITY": 0.0002467,
    "INCLINATION": 98.6054,
    "RA_OF_ASC_NODE": 165.8345,
    "ARG_OF_PERICENTER": 99.3285,
    "MEAN_ANOMALY": 260.8172,
    "EPHEMERIS_TYPE": 0,
    "CLASSIFICATION_TYPE": "U",
    "NORAD_CAT_ID": 64876,
    "ELEMENT_SET_NO": 999,
    "REV_AT_EPOCH": 5161,
    "BSTAR": 0.000039526,
    "MEAN_MOTION_DOT": 4.4e-7,
    "MEAN_MOTION_DDOT": 0
   }
  },
  {
   "norad": 64877,
   "name": "IONOSFERA-M 4",
   "intl": "2025-155B",
   "group": "resource",
   "gcat": {
    "class": "C",
    "category": "SCI",
    "owner": "VNIIEMI",
    "state": "RU"
   },
   "omm": {
    "OBJECT_NAME": "IONOSFERA-M 4",
    "OBJECT_ID": "2025-155B",
    "EPOCH": "2026-07-23T21:11:02.667264",
    "MEAN_MOTION": 14.21494433,
    "ECCENTRICITY": 0.0001913,
    "INCLINATION": 98.6053,
    "RA_OF_ASC_NODE": 165.7854,
    "ARG_OF_PERICENTER": 90.7141,
    "MEAN_ANOMALY": 269.4256,
    "EPHEMERIS_TYPE": 0,
    "CLASSIFICATION_TYPE": "U",
    "NORAD_CAT_ID": 64877,
    "ELEMENT_SET_NO": 999,
    "REV_AT_EPOCH": 5161,
    "BSTAR": 0.000039139,
    "MEAN_MOTION_DOT": 4.3e-7,
    "MEAN_MOTION_DDOT": 0
   }
  },
  {
   "norad": 28649,
   "name": "IRS-P5 (CARTOSAT-1)",
   "intl": "2005-017A",
   "group": "resource",
   "gcat": {
    "class": null,
    "category": null,
    "owner": null,
    "state": null
   },
   "omm": {
    "OBJECT_NAME": "IRS-P5 (CARTOSAT-1)",
    "OBJECT_ID": "2005-017A",
    "EPOCH": "2026-07-23T07:34:46.663104",
    "MEAN_MOTION": 14.9113226,
    "ECCENTRICITY": 0.0000929,
    "INCLINATION": 97.5308,
    "RA_OF_ASC_NODE": 225.7421,
    "ARG_OF_PERICENTER": 58.589,
    "MEAN_ANOMALY": 301.542,
    "EPHEMERIS_TYPE": 0,
    "CLASSIFICATION_TYPE": "U",
    "NORAD_CAT_ID": 28649,
    "ELEMENT_SET_NO": 999,
    "REV_AT_EPOCH": 14920,
    "BSTAR": 0.00010879,
    "MEAN_MOTION_DOT": 0.00001026,
    "MEAN_MOTION_DDOT": 0
   }
  },
  {
   "norad": 41240,
   "name": "JASON-3",
   "intl": "2016-002A",
   "group": "resource",
   "gcat": {
    "class": "C",
    "category": "SCI/MET",
    "owner": "CNES/NOAA",
    "state": "F"
   },
   "omm": {
    "OBJECT_NAME": "JASON-3",
    "OBJECT_ID": "2016-002A",
    "EPOCH": "2026-07-23T19:38:19.498272",
    "MEAN_MOTION": 12.87629,
    "ECCENTRICITY": 0.0008121,
    "INCLINATION": 66.0415,
    "RA_OF_ASC_NODE": 48.8219,
    "ARG_OF_PERICENTER": 270.0942,
    "MEAN_ANOMALY": 89.9146,
    "EPHEMERIS_TYPE": 0,
    "CLASSIFICATION_TYPE": "U",
    "NORAD_CAT_ID": 41240,
    "ELEMENT_SET_NO": 999,
    "REV_AT_EPOCH": 49196,
    "BSTAR": 0.000067311,
    "MEAN_MOTION_DOT": -4.5e-7,
    "MEAN_MOTION_DDOT": 0
   }
  },
  {
   "norad": 39731,
   "name": "KAZEOSAT 1",
   "intl": "2014-024A",
   "group": "resource",
   "gcat": {
    "class": "C",
    "category": "IMG",
    "owner": "KAZK",
    "state": "KZ"
   },
   "omm": {
    "OBJECT_NAME": "KAZEOSAT 1",
    "OBJECT_ID": "2014-024A",
    "EPOCH": "2026-07-23T20:46:18.090624",
    "MEAN_MOTION": 14.42039475,
    "ECCENTRICITY": 0.0001208,
    "INCLINATION": 98.319,
    "RA_OF_ASC_NODE": 276.3964,
    "ARG_OF_PERICENTER": 88.2872,
    "MEAN_ANOMALY": 271.8456,
    "EPHEMERIS_TYPE": 0,
    "CLASSIFICATION_TYPE": "U",
    "NORAD_CAT_ID": 39731,
    "ELEMENT_SET_NO": 999,
    "REV_AT_EPOCH": 64384,
    "BSTAR": 0.000042856,
    "MEAN_MOTION_DOT": 9.8e-7,
    "MEAN_MOTION_DDOT": 0
   }
  },
  {
   "norad": 40010,
   "name": "KAZEOSAT 2",
   "intl": "2014-033A",
   "group": "resource",
   "gcat": {
    "class": "C",
    "category": "IMG",
    "owner": "KAZK",
    "state": "KZ"
   },
   "omm": {
    "OBJECT_NAME": "KAZEOSAT 2",
    "OBJECT_ID": "2014-033A",
    "EPOCH": "2026-07-23T19:20:57.662016",
    "MEAN_MOTION": 14.85507117,
    "ECCENTRICITY": 0.0008072,
    "INCLINATION": 97.5403,
    "RA_OF_ASC_NODE": 42.4815,
    "ARG_OF_PERICENTER": 188.0542,
    "MEAN_ANOMALY": 172.0546,
    "EPHEMERIS_TYPE": 0,
    "CLASSIFICATION_TYPE": "U",
    "NORAD_CAT_ID": 40010,
    "ELEMENT_SET_NO": 999,
    "REV_AT_EPOCH": 65439,
    "BSTAR": 0.000028614,
    "MEAN_MOTION_DOT": 0.00000197,
    "MEAN_MOTION_DDOT": 0
   }
  },
  {
   "norad": 43783,
   "name": "KAZSTSAT",
   "intl": "2018-099AB",
   "group": "resource",
   "gcat": {
    "class": "B",
    "category": "IMG",
    "owner": "GHALAM",
    "state": "KZ"
   },
   "omm": {
    "OBJECT_NAME": "KAZSTSAT",
    "OBJECT_ID": "2018-099AB",
    "EPOCH": "2026-07-23T12:31:53.006592",
    "MEAN_MOTION": 14.9996177,
    "ECCENTRICITY": 0.0007209,
    "INCLINATION": 97.4301,
    "RA_OF_ASC_NODE": 234.8148,
    "ARG_OF_PERICENTER": 305.3153,
    "MEAN_ANOMALY": 54.7397,
    "EPHEMERIS_TYPE": 0,
    "CLASSIFICATION_TYPE": "U",
    "NORAD_CAT_ID": 43783,
    "ELEMENT_SET_NO": 999,
    "REV_AT_EPOCH": 41675,
    "BSTAR": 0.000025859,
    "MEAN_MOTION_DOT": 0.00000265,
    "MEAN_MOTION_DDOT": 0
   }
  }
 ]
}
